GLOBALSTAR M075         
1 37192U 10054E   25239.43359127 -.00000077  00000+0  15134-3 0  9998
2 37192  51.9968 324.6099 0000595 109.9288 330.2742 12.62266983684847
GLOBALSTAR M073         
1 37193U 10054F   25239.77025360 -.00000109  00000+0 -28504-4 0  9998
2 37193  52.0036 237.4569 0000424  96.5907  74.2906 12.62262188686874
GLOBALSTAR M083         
1 37739U 11033A   25239.91947045 -.00000086  00000+0  98937-4 0  9991
2 37739  51.9844 185.6352 0000569  58.1459  10.2650 12.62274974655918
GLOBALSTAR M088         
1 37740U 11033B   25239.88074826 -.00000094  00000+0  55681-4 0  9995
2 37740  52.0209  91.4693 0000727  65.4564 307.2187 12.62267529651450
GLOBALSTAR M091         
1 37741U 11033C   25239.92440228 -.00000102  00000+0  97263-5 0  9997
2 37741  52.0002  54.7319 0000937  69.5936  82.7749 12.62269886652245
GLOBALSTAR M085         
1 37742U 11033D   25239.64331124 -.00000094  00000+0  55916-4 0  9999
2 37742  52.0155   6.6248 0000859  82.4129 291.8389 12.62264060652728
GLOBALSTAR M081         
1 37743U 11033E   25239.66966079 -.00000101  00000+0  13283-4 0  9995
2 37743  51.9984   9.3161 0000947  95.5265 277.3654 12.62267674652879
GLOBALSTAR M089         
1 37744U 11033F   25239.55054425 -.00000080  00000+0  13516-3 0  9991
2 37744  51.9952 323.8953 0000666 133.2985 238.9768 12.62265929653708
